{
    "links": {
        "self": "http://www.neowsapp.com/rest/v1/neo/3368860?api_key=iIulBulltgU6a56xZRHN4H3l9WmuAYTsLGpBGhQ2"
    },
    "id": "3368860",
    "neo_reference_id": "3368860",
    "name": "(2007 DX40)",
    "designation": "2007 DX40",
    "nasa_jpl_url": "http://ssd.jpl.nasa.gov/sbdb.cgi?sstr=3368860",
    "absolute_magnitude_h": 24.6,
    "estimated_diameter": {
        "kilometers": {
            "estimated_diameter_min": 0.0319561887,
            "estimated_diameter_max": 0.0714562102
        },
        "meters": {
            "estimated_diameter_min": 31.9561886721,
            "estimated_diameter_max": 71.4562101727
        },
        "miles": {
            "estimated_diameter_min": 0.0198566489,
            "estimated_diameter_max": 0.0444008168
        },
        "feet": {
            "estimated_diameter_min": 104.8431420431,
            "estimated_diameter_max": 234.436392583
        }
    },
    "is_potentially_hazardous_asteroid": false,
    "close_approach_data": [
        {
            "close_approach_date": "2003-10-01",
            "close_approach_date_full": "2003-Oct-01 19:14",
            "epoch_date_close_approach": 1065035640000,
            "relative_velocity": {
                "kilometers_per_second": "13.6047603047",
                "kilometers_per_hour": "48977.1370968887",
                "miles_per_hour": "30432.488325564"
            },
            "miss_distance": {
                "astronomical": "0.0430861533",
                "lunar": "16.7605136337",
                "kilometers": "6445596.760173471",
                "miles": "4005108.1074410598"
            },
            "orbiting_body": "Mars"
        },
        {
            "close_approach_date": "2007-03-04",
            "close_approach_date_full": "2007-Mar-04 04:27",
            "epoch_date_close_approach": 1172982420000,
            "relative_velocity": {
                "kilometers_per_second": "16.1676972668",
                "kilometers_per_hour": "58203.7101606179",
                "miles_per_hour": "36165.5220161906"
            },
            "miss_distance": {
                "astronomical": "0.0198708089",
                "lunar": "7.7297446621",
                "kilometers": "2972630.686617043",
                "miles": "1847107.0571714734"
            },
            "orbiting_body": "Earth"
        }
    ],
    "orbital_data": {
        "orbit_id": "9",
        "orbit_determination_date": "2017-04-06 09:06:56",
        "first_observation_date": "2007-02-21",
        "last_observation_date": "2007-03-02",
        "data_arc_in_days": 9,
        "observations_used": 30,
        "orbit_uncertainty": "8",
        "minimum_orbit_intersection": ".000675507",
        "jupiter_tisserand_invariant": "4.297",
        "epoch_osculation": "2454155.5",
        "eccentricity": ".5385290867600989",
        "semi_major_axis": "1.539052580074344",
        "inclination": ".4521576638100428",
        "ascending_node_longitude": "329.8170574774591",
        "orbital_period": "697.3946522489155",
        "perihelion_distance": ".7102279996511336",
        "perihelion_argument": "273.6823019633363",
        "aphelion_distance": "2.367877160497555",
        "perihelion_time": "2454213.224405930641",
        "mean_anomaly": "330.202257691512",
        "mean_motion": ".5162069982026591",
        "equinox": "J2000",
        "orbit_class": {
            "orbit_class_type": "APO",
            "orbit_class_description": "Near-Earth asteroid orbits which cross the Earth’s orbit similar to that of 1862 Apollo",
            "orbit_class_range": "a (semi-major axis) > 1.0 AU; q (perihelion) < 1.017 AU"
        }
    },
    "is_sentry_object": false
}